{
  "type": "FeatureCollection",
  "features": [
    {
      "type": "Feature",
      "properties": { "name": "Garhwa", "district": "Garhwa" },
      "geometry": {
        "type": "Polygon",
        "coordinates": [[[83.35, 24.0], [83.5, 24.4], [83.9, 24.45], [84.05, 24.2], [83.85, 23.9], [83.55, 23.9], [83.35, 24.0]]]
      }
    },
    {
      "type": "Feature",
      "properties": { "name": "Palamu", "district": "Palamu" },
      "geometry": {
        "type": "Polygon",
        "coordinates": [[[83.85, 23.9], [84.05, 24.2], [84.45, 24.4], [84.6, 24.1], [84.4, 23.8], [84.0, 23.8], [83.85, 23.9]]]
      }
    },
    {
      "type": "Feature",
      "properties": { "name": "Chatra", "district": "Chatra" },
      "geometry": {
        "type": "Polygon",
        "coordinates": [[[84.6, 24.1], [84.7, 24.5], [85.1, 24.55], [85.2, 24.2], [85.0, 23.85], [84.6, 24.1]]]
      }
    },
    {
      "type": "Feature",
      "properties": { "name": "Koderma", "district": "Koderma" },
      "geometry": {
        "type": "Polygon",
        "coordinates": [[[85.4, 24.3], [85.5, 24.75], [85.9, 24.8], [85.95, 24.4], [85.6, 24.3], [85.4, 24.3]]]
      }
    },
    {
      "type": "Feature",
      "properties": { "name": "Hazaribagh", "district": "Hazaribagh" },
      "geometry": {
        "type": "Polygon",
        "coordinates": [[[85.1, 23.85], [85.2, 24.2], [85.4, 24.3], [85.6, 24.3], [85.75, 23.95], [85.5, 23.75], [85.1, 23.85]]]
      }
    },
    {
      "type": "Feature",
      "properties": { "name": "Giridih", "district": "Giridih" },
      "geometry": {
        "type": "Polygon",
        "coordinates": [[[85.75, 23.95], [85.95, 24.4], [86.2, 24.6], [86.5, 24.4], [86.4, 23.95], [86.0, 23.9], [85.75, 23.95]]]
      }
    },
    {
      "type": "Feature",
      "properties": { "name": "Deoghar", "district": "Deoghar" },
      "geometry": {
        "type": "Polygon",
        "coordinates": [[[86.5, 24.4], [86.55, 24.7], [86.9, 24.75], [87.05, 24.35], [86.7, 24.2], [86.5, 24.4]]]
      }
    },
    {
      "type": "Feature",
      "properties": { "name": "Dumka", "district": "Dumka" },
      "geometry": {
        "type": "Polygon",
        "coordinates": [[[86.9, 24.1], [87.05, 24.35], [87.3, 24.6], [87.55, 24.4], [87.4, 24.05], [87.0, 24.05], [86.9, 24.1]]]
      }
    },
    {
      "type": "Feature",
      "properties": { "name": "Godda", "district": "Godda" },
      "geometry": {
        "type": "Polygon",
        "coordinates": [[[87.05, 24.6], [87.1, 25.1], [87.55, 25.1], [87.6, 24.65], [87.3, 24.6], [87.05, 24.6]]]
      }
    },
    {
      "type": "Feature",
      "properties": { "name": "Sahebganj", "district": "Sahebganj" },
      "geometry": {
        "type": "Polygon",
        "coordinates": [[[87.55, 25.0], [87.6, 25.35], [87.95, 25.3], [87.9, 24.9], [87.65, 24.85], [87.55, 25.0]]]
      }
    },
    {
      "type": "Feature",
      "properties": { "name": "Pakur", "district": "Pakur" },
      "geometry": {
        "type": "Polygon",
        "coordinates": [[[87.55, 24.4], [87.65, 24.85], [87.9, 24.85], [87.95, 24.5], [87.7, 24.35], [87.55, 24.4]]]
      }
    },
    {
      "type": "Feature",
      "properties": { "name": "Jamtara", "district": "Jamtara" },
      "geometry": {
        "type": "Polygon",
        "coordinates": [[[86.6, 23.8], [86.7, 24.2], [87.1, 24.15], [87.15, 23.75], [86.8, 23.7], [86.6, 23.8]]]
      }
    },
    {
      "type": "Feature",
      "properties": { "name": "Dhanbad", "district": "Dhanbad" },
      "geometry": {
        "type": "Polygon",
        "coordinates": [[[86.15, 23.65], [86.25, 24.0], [86.65, 24.0], [86.7, 23.65], [86.4, 23.6], [86.15, 23.65]]]
      }
    },
    {
      "type": "Feature",
      "properties": { "name": "Bokaro", "district": "Bokaro" },
      "geometry": {
        "type": "Polygon",
        "coordinates": [[[85.75, 23.55], [85.85, 23.9], [86.25, 23.9], [86.25, 23.5], [85.95, 23.5], [85.75, 23.55]]]
      }
    },
    {
      "type": "Feature",
      "properties": { "name": "Ramgarh", "district": "Ramgarh" },
      "geometry": {
        "type": "Polygon",
        "coordinates": [[[85.35, 23.45], [85.45, 23.75], [85.75, 23.75], [85.75, 23.45], [85.55, 23.4], [85.35, 23.45]]]
      }
    },
    {
      "type": "Feature",
      "properties": { "name": "Ranchi", "district": "Ranchi" },
      "geometry": {
        "type": "Polygon",
        "coordinates": [[[84.95, 23.15], [85.05, 23.55], [85.45, 23.6], [85.6, 23.25], [85.3, 23.1], [84.95, 23.15]]]
      }
    },
    {
      "type": "Feature",
      "properties": { "name": "Lohardaga", "district": "Lohardaga" },
      "geometry": {
        "type": "Polygon",
        "coordinates": [[[84.55, 23.35], [84.65, 23.65], [84.95, 23.6], [84.9, 23.3], [84.65, 23.3], [84.55, 23.35]]]
      }
    },
    {
      "type": "Feature",
      "properties": { "name": "Latehar", "district": "Latehar" },
      "geometry": {
        "type": "Polygon",
        "coordinates": [[[84.15, 23.55], [84.35, 23.95], [84.7, 23.9], [84.65, 23.5], [84.35, 23.45], [84.15, 23.55]]]
      }
    },
    {
      "type": "Feature",
      "properties": { "name": "Gumla", "district": "Gumla" },
      "geometry": {
        "type": "Polygon",
        "coordinates": [[[84.25, 22.8], [84.4, 23.35], [84.85, 23.3], [84.9, 22.75], [84.5, 22.7], [84.25, 22.8]]]
      }
    },
    {
      "type": "Feature",
      "properties": { "name": "Simdega", "district": "Simdega" },
      "geometry": {
        "type": "Polygon",
        "coordinates": [[[84.15, 22.3], [84.3, 22.75], [84.8, 22.75], [84.85, 22.25], [84.45, 22.2], [84.15, 22.3]]]
      }
    },
    {
      "type": "Feature",
      "properties": { "name": "Khunti", "district": "Khunti" },
      "geometry": {
        "type": "Polygon",
        "coordinates": [[[84.95, 22.85], [85.05, 23.25], [85.5, 23.2], [85.55, 22.8], [85.2, 22.8], [84.95, 22.85]]]
      }
    },
    {
      "type": "Feature",
      "properties": { "name": "West Singhbhum", "district": "West Singhbhum" },
      "geometry": {
        "type": "Polygon",
        "coordinates": [[[85.05, 22.0], [85.15, 22.7], [85.75, 22.7], [85.85, 22.05], [85.45, 21.95], [85.05, 22.0]]]
      }
    },
    {
      "type": "Feature",
      "properties": { "name": "Seraikela", "district": "Seraikela" },
      "geometry": {
        "type": "Polygon",
        "coordinates": [[[85.65, 22.5], [85.75, 22.95], [86.2, 22.95], [86.25, 22.55], [85.95, 22.45], [85.65, 22.5]]]
      }
    },
    {
      "type": "Feature",
      "properties": { "name": "East Singhbhum", "district": "East Singhbhum" },
      "geometry": {
        "type": "Polygon",
        "coordinates": [[[86.1, 22.25], [86.25, 22.95], [86.75, 22.9], [86.85, 22.25], [86.4, 22.15], [86.1, 22.25]]]
      }
    }
  ]
}
